CCSDS_OMM_VERS = 2.0
CREATION_DATE  = 
ORIGINATOR     = 

OBJECT_NAME    = ALOS (DAICHI)
OBJECT_ID      = 2006-002A
CENTER_NAME    = EARTH
REF_FRAME      = TEME
TIME_SYSTEM    = UTC
MEAN_ELEMENT_THEORY = SGP/SGP4

EPOCH          = 2026-02-24T20:10:13.175328
MEAN_MOTION    = 14.69761698
ECCENTRICITY   = .00014683
INCLINATION    = 98.1196
RA_OF_ASC_NODE = 11.8628
ARG_OF_PERICENTER = 53.6816
MEAN_ANOMALY   = 306.4525

EPHEMERIS_TYPE = 0
CLASSIFICATION_TYPE = U
NORAD_CAT_ID   = 28931
ELEMENT_SET_NO = 999
REV_AT_EPOCH   = 7159
BSTAR          = .24068136E-3
MEAN_MOTION_DOT = .1386E-4
MEAN_MOTION_DDOT = 0

CCSDS_OMM_VERS = 2.0
CREATION_DATE  = 
ORIGINATOR     = 

OBJECT_NAME    = H-2A R/B
OBJECT_ID      = 2006-002B
CENTER_NAME    = EARTH
REF_FRAME      = TEME
TIME_SYSTEM    = UTC
MEAN_ELEMENT_THEORY = SGP/SGP4

EPOCH          = 2026-02-25T03:16:34.820832
MEAN_MOTION    = 15.16118804
ECCENTRICITY   = .0051982
INCLINATION    = 98.2387
RA_OF_ASC_NODE = 202.0859
ARG_OF_PERICENTER = 284.3404
MEAN_ANOMALY   = 75.2058

EPHEMERIS_TYPE = 0
CLASSIFICATION_TYPE = U
NORAD_CAT_ID   = 28932
ELEMENT_SET_NO = 999
REV_AT_EPOCH   = 9253
BSTAR          = .4005E-3
MEAN_MOTION_DOT = .7908E-4
MEAN_MOTION_DDOT = 0

CCSDS_OMM_VERS = 2.0
CREATION_DATE  = 
ORIGINATOR     = 

OBJECT_NAME    = RESURS-DK 1
OBJECT_ID      = 2006-021A
CENTER_NAME    = EARTH
REF_FRAME      = TEME
TIME_SYSTEM    = UTC
MEAN_ELEMENT_THEORY = SGP/SGP4

EPOCH          = 2026-02-24T21:43:45.397056
MEAN_MOTION    = 15.12653726
ECCENTRICITY   = .0002838
INCLINATION    = 69.9313
RA_OF_ASC_NODE = 270.0941
ARG_OF_PERICENTER = 173.4781
MEAN_ANOMALY   = 186.6422

EPHEMERIS_TYPE = 0
CLASSIFICATION_TYPE = U
NORAD_CAT_ID   = 29228
ELEMENT_SET_NO = 999
REV_AT_EPOCH   = 8559
BSTAR          = .12423E-3
MEAN_MOTION_DOT = .207E-4
MEAN_MOTION_DDOT = 0

CCSDS_OMM_VERS = 2.0
CREATION_DATE  = 
ORIGINATOR     = 

OBJECT_NAME    = CZ-4B R/B
OBJECT_ID      = 2006-046C
CENTER_NAME    = EARTH
REF_FRAME      = TEME
TIME_SYSTEM    = UTC
MEAN_ELEMENT_THEORY = SGP/SGP4

EPOCH          = 2026-02-25T01:48:11.049696
MEAN_MOTION    = 15.16753501
ECCENTRICITY   = .0032094
INCLINATION    = 97.5624
RA_OF_ASC_NODE = 101.0176
ARG_OF_PERICENTER = 313.1500
MEAN_ANOMALY   = 46.7050

EPHEMERIS_TYPE = 0
CLASSIFICATION_TYPE = U
NORAD_CAT_ID   = 29507
ELEMENT_SET_NO = 999
REV_AT_EPOCH   = 5813
BSTAR          = .22772E-3
MEAN_MOTION_DOT = .4456E-4
MEAN_MOTION_DDOT = 0

CCSDS_OMM_VERS = 2.0
CREATION_DATE  = 
ORIGINATOR     = 

OBJECT_NAME    = CZ-2C R/B
OBJECT_ID      = 2007-010B
CENTER_NAME    = EARTH
REF_FRAME      = TEME
TIME_SYSTEM    = UTC
MEAN_ELEMENT_THEORY = SGP/SGP4

EPOCH          = 2026-02-25T04:27:29.207808
MEAN_MOTION    = 14.20241178
ECCENTRICITY   = .0058334
INCLINATION    = 98.3975
RA_OF_ASC_NODE = 170.0919
ARG_OF_PERICENTER = 331.5512
MEAN_ANOMALY   = 28.2484

EPHEMERIS_TYPE = 0
CLASSIFICATION_TYPE = U
NORAD_CAT_ID   = 31114
ELEMENT_SET_NO = 999
REV_AT_EPOCH   = 97794
BSTAR          = .65638E-4
MEAN_MOTION_DOT = .101E-5
MEAN_MOTION_DDOT = 0

CCSDS_OMM_VERS = 2.0
CREATION_DATE  = 
ORIGINATOR     = 

OBJECT_NAME    = COSMO-SKYMED 1
OBJECT_ID      = 2007-023A
CENTER_NAME    = EARTH
REF_FRAME      = TEME
TIME_SYSTEM    = UTC
MEAN_ELEMENT_THEORY = SGP/SGP4

EPOCH          = 2026-02-25T03:51:27.721728
MEAN_MOTION    = 14.96428226
ECCENTRICITY   = .0001292
INCLINATION    = 97.8879
RA_OF_ASC_NODE = 247.0932
ARG_OF_PERICENTER = 83.3345
MEAN_ANOMALY   = 276.8023

EPHEMERIS_TYPE = 0
CLASSIFICATION_TYPE = U
NORAD_CAT_ID   = 31598
ELEMENT_SET_NO = 999
REV_AT_EPOCH   = 1303
BSTAR          = .23548E-3
MEAN_MOTION_DOT = .261E-4
MEAN_MOTION_DDOT = 0

CCSDS_OMM_VERS = 2.0
CREATION_DATE  = 
ORIGINATOR     = 

OBJECT_NAME    = COSMOS 2428
OBJECT_ID      = 2007-029A
CENTER_NAME    = EARTH
REF_FRAME      = TEME
TIME_SYSTEM    = UTC
MEAN_ELEMENT_THEORY = SGP/SGP4

EPOCH          = 2026-02-24T20:41:50.938368
MEAN_MOTION    = 14.12942196
ECCENTRICITY   = .000837
INCLINATION    = 70.9406
RA_OF_ASC_NODE = 230.2678
ARG_OF_PERICENTER = 290.8326
MEAN_ANOMALY   = 69.1898

EPHEMERIS_TYPE = 0
CLASSIFICATION_TYPE = U
NORAD_CAT_ID   = 31792
ELEMENT_SET_NO = 999
REV_AT_EPOCH   = 96228
BSTAR          = .1202E-3
MEAN_MOTION_DOT = .176E-5
MEAN_MOTION_DDOT = 0

CCSDS_OMM_VERS = 2.0
CREATION_DATE  = 
ORIGINATOR     = 

OBJECT_NAME    = SL-16 R/B
OBJECT_ID      = 2007-029B
CENTER_NAME    = EARTH
REF_FRAME      = TEME
TIME_SYSTEM    = UTC
MEAN_ELEMENT_THEORY = SGP/SGP4

EPOCH          = 2026-02-24T20:34:36.908832
MEAN_MOTION    = 14.14835837
ECCENTRICITY   = .00024717
INCLINATION    = 70.9754
RA_OF_ASC_NODE = 199.3567
ARG_OF_PERICENTER = 280.6127
MEAN_ANOMALY   = 241.4154

EPHEMERIS_TYPE = 0
CLASSIFICATION_TYPE = U
NORAD_CAT_ID   = 31793
ELEMENT_SET_NO = 999
REV_AT_EPOCH   = 96355
BSTAR          = -.69650961E-4
MEAN_MOTION_DOT = -.182E-5
MEAN_MOTION_DDOT = 0

CCSDS_OMM_VERS = 2.0
CREATION_DATE  = 
ORIGINATOR     = 

OBJECT_NAME    = KORONAS-FOTON
OBJECT_ID      = 2009-003A
CENTER_NAME    = EARTH
REF_FRAME      = TEME
TIME_SYSTEM    = UTC
MEAN_ELEMENT_THEORY = SGP/SGP4

EPOCH          = 2026-02-25T02:52:10.189632
MEAN_MOTION    = 15.42975756
ECCENTRICITY   = .0010125
INCLINATION    = 82.4296
RA_OF_ASC_NODE = 288.9440
ARG_OF_PERICENTER = 193.7977
MEAN_ANOMALY   = 166.2995

EPHEMERIS_TYPE = 0
CLASSIFICATION_TYPE = U
NORAD_CAT_ID   = 33504
ELEMENT_SET_NO = 999
REV_AT_EPOCH   = 94380
BSTAR          = .26845E-3
MEAN_MOTION_DOT = .11879E-3
MEAN_MOTION_DDOT = 0

CCSDS_OMM_VERS = 2.0
CREATION_DATE  = 
ORIGINATOR     = 

OBJECT_NAME    = CZ-2C R/B
OBJECT_ID      = 2011-030B
CENTER_NAME    = EARTH
REF_FRAME      = TEME
TIME_SYSTEM    = UTC
MEAN_ELEMENT_THEORY = SGP/SGP4

EPOCH          = 2026-02-24T10:45:59.822784
MEAN_MOTION    = 14.81162471
ECCENTRICITY   = .00536211
INCLINATION    = 97.8522
RA_OF_ASC_NODE = 12.9797
ARG_OF_PERICENTER = 34.8280
MEAN_ANOMALY   = 78.5792

EPHEMERIS_TYPE = 0
CLASSIFICATION_TYPE = U
NORAD_CAT_ID   = 37731
ELEMENT_SET_NO = 999
REV_AT_EPOCH   = 78813
BSTAR          = .21555626E-3
MEAN_MOTION_DOT = .1663E-4
MEAN_MOTION_DDOT = 0

CCSDS_OMM_VERS = 2.0
CREATION_DATE  = 
ORIGINATOR     = 

OBJECT_NAME    = H-2A R/B
OBJECT_ID      = 2012-025E
CENTER_NAME    = EARTH
REF_FRAME      = TEME
TIME_SYSTEM    = UTC
MEAN_ELEMENT_THEORY = SGP/SGP4

EPOCH          = 2026-02-24T21:05:36.950496
MEAN_MOTION    = 14.95039629
ECCENTRICITY   = .0044761
INCLINATION    = 98.4705
RA_OF_ASC_NODE = 21.9039
ARG_OF_PERICENTER = 356.5717
MEAN_ANOMALY   = 3.5188

EPHEMERIS_TYPE = 0
CLASSIFICATION_TYPE = U
NORAD_CAT_ID   = 38341
ELEMENT_SET_NO = 999
REV_AT_EPOCH   = 74630
BSTAR          = .26923E-3
MEAN_MOTION_DOT = .2935E-4
MEAN_MOTION_DDOT = 0

CCSDS_OMM_VERS = 2.0
CREATION_DATE  = 
ORIGINATOR     = 

OBJECT_NAME    = SHIJIAN-16 (SJ-16)
OBJECT_ID      = 2013-057A
CENTER_NAME    = EARTH
REF_FRAME      = TEME
TIME_SYSTEM    = UTC
MEAN_ELEMENT_THEORY = SGP/SGP4

EPOCH          = 2026-02-25T03:49:40.238400
MEAN_MOTION    = 14.92280962
ECCENTRICITY   = .0016058
INCLINATION    = 74.9715
RA_OF_ASC_NODE = 208.8064
ARG_OF_PERICENTER = 144.6237
MEAN_ANOMALY   = 215.6020

EPHEMERIS_TYPE = 0
CLASSIFICATION_TYPE = U
NORAD_CAT_ID   = 39358
ELEMENT_SET_NO = 999
REV_AT_EPOCH   = 66963
BSTAR          = .12551E-3
MEAN_MOTION_DOT = .1255E-4
MEAN_MOTION_DDOT = 0

